CCSDS_OMM_VERS = 2.0
CREATION_DATE  = 
ORIGINATOR     = 

OBJECT_NAME    = SL-14 R/B
OBJECT_ID      = 1991-042B
CENTER_NAME    = EARTH
REF_FRAME      = TEME
TIME_SYSTEM    = UTC
MEAN_ELEMENT_THEORY = SGP/SGP4

EPOCH          = 2025-12-04T09:47:52.821600
MEAN_MOTION    = 14.81726962
ECCENTRICITY   = .00167068
INCLINATION    = 82.4918
RA_OF_ASC_NODE = 309.5365
ARG_OF_PERICENTER = 189.0820
MEAN_ANOMALY   = 171.0095

EPHEMERIS_TYPE = 0
CLASSIFICATION_TYPE = U
NORAD_CAT_ID   = 21423
ELEMENT_SET_NO = 999
REV_AT_EPOCH   = 83896
BSTAR          = .10626819E-3
MEAN_MOTION_DOT = .862E-5
MEAN_MOTION_DDOT = 0

CCSDS_OMM_VERS = 2.0
CREATION_DATE  = 
ORIGINATOR     = 

OBJECT_NAME    = ERS-1
OBJECT_ID      = 1991-050A
CENTER_NAME    = EARTH
REF_FRAME      = TEME
TIME_SYSTEM    = UTC
MEAN_ELEMENT_THEORY = SGP/SGP4

EPOCH          = 2025-12-04T14:29:14.375040
MEAN_MOTION    = 14.39355181
ECCENTRICITY   = .0032846
INCLINATION    = 98.7908
RA_OF_ASC_NODE = 349.4549
ARG_OF_PERICENTER = 123.4305
MEAN_ANOMALY   = 237.0030

EPHEMERIS_TYPE = 0
CLASSIFICATION_TYPE = U
NORAD_CAT_ID   = 21574
ELEMENT_SET_NO = 999
REV_AT_EPOCH   = 80205
BSTAR          = .21972239E-3
MEAN_MOTION_DOT = .641E-5
MEAN_MOTION_DDOT = 0

CCSDS_OMM_VERS = 2.0
CREATION_DATE  = 
ORIGINATOR     = 

OBJECT_NAME    = ARIANE 40 R/B
OBJECT_ID      = 1991-050F
CENTER_NAME    = EARTH
REF_FRAME      = TEME
TIME_SYSTEM    = UTC
MEAN_ELEMENT_THEORY = SGP/SGP4

EPOCH          = 2025-12-04T14:28:38.097408
MEAN_MOTION    = 14.42802964
ECCENTRICITY   = .00032918
INCLINATION    = 98.2176
RA_OF_ASC_NODE = 29.3270
ARG_OF_PERICENTER = 23.3175
MEAN_ANOMALY   = 336.8165

EPHEMERIS_TYPE = 0
CLASSIFICATION_TYPE = U
NORAD_CAT_ID   = 21610
ELEMENT_SET_NO = 999
REV_AT_EPOCH   = 80528
BSTAR          = .23339333E-3
MEAN_MOTION_DOT = .736E-5
MEAN_MOTION_DDOT = 0

CCSDS_OMM_VERS = 2.0
CREATION_DATE  = 
ORIGINATOR     = 

OBJECT_NAME    = INTERCOSMOS 25
OBJECT_ID      = 1991-086A
CENTER_NAME    = EARTH
REF_FRAME      = TEME
TIME_SYSTEM    = UTC
MEAN_ELEMENT_THEORY = SGP/SGP4

EPOCH          = 2025-12-04T13:03:58.898016
MEAN_MOTION    = 12.11684873
ECCENTRICITY   = .1486955
INCLINATION    = 82.6071
RA_OF_ASC_NODE = 7.5320
ARG_OF_PERICENTER = 322.0786
MEAN_ANOMALY   = 28.4074

EPHEMERIS_TYPE = 0
CLASSIFICATION_TYPE = U
NORAD_CAT_ID   = 21819
ELEMENT_SET_NO = 999
REV_AT_EPOCH   = 48516
BSTAR          = .78318441E-3
MEAN_MOTION_DOT = .3945E-4
MEAN_MOTION_DDOT = 0

CCSDS_OMM_VERS = 2.0
CREATION_DATE  = 
ORIGINATOR     = 

OBJECT_NAME    = SL-8 R/B
OBJECT_ID      = 1992-008B
CENTER_NAME    = EARTH
REF_FRAME      = TEME
TIME_SYSTEM    = UTC
MEAN_ELEMENT_THEORY = SGP/SGP4

EPOCH          = 2025-12-04T13:06:00.092160
MEAN_MOTION    = 13.75956448
ECCENTRICITY   = .00356357
INCLINATION    = 82.9263
RA_OF_ASC_NODE = 338.5419
ARG_OF_PERICENTER = 42.2139
MEAN_ANOMALY   = 72.7554

EPHEMERIS_TYPE = 0
CLASSIFICATION_TYPE = U
NORAD_CAT_ID   = 21876
ELEMENT_SET_NO = 999
REV_AT_EPOCH   = 69633
BSTAR          = .19233188E-3
MEAN_MOTION_DOT = .203E-5
MEAN_MOTION_DDOT = 0

CCSDS_OMM_VERS = 2.0
CREATION_DATE  = 
ORIGINATOR     = 

OBJECT_NAME    = SL-8 R/B
OBJECT_ID      = 1992-020B
CENTER_NAME    = EARTH
REF_FRAME      = TEME
TIME_SYSTEM    = UTC
MEAN_ELEMENT_THEORY = SGP/SGP4

EPOCH          = 2025-12-04T16:26:51.736992
MEAN_MOTION    = 13.75524978
ECCENTRICITY   = .00283869
INCLINATION    = 82.9312
RA_OF_ASC_NODE = 224.2980
ARG_OF_PERICENTER = 200.9070
MEAN_ANOMALY   = 176.9776

EPHEMERIS_TYPE = 0
CLASSIFICATION_TYPE = U
NORAD_CAT_ID   = 21938
ELEMENT_SET_NO = 999
REV_AT_EPOCH   = 68807
BSTAR          = .84960907E-4
MEAN_MOTION_DOT = .97E-6
MEAN_MOTION_DDOT = 0

CCSDS_OMM_VERS = 2.0
CREATION_DATE  = 
ORIGINATOR     = 

OBJECT_NAME    = USA 81
OBJECT_ID      = 1992-023A
CENTER_NAME    = EARTH
REF_FRAME      = TEME
TIME_SYSTEM    = UTC
MEAN_ELEMENT_THEORY = SGP/SGP4

EPOCH          = 2025-12-04T15:37:13.784736
MEAN_MOTION    = 14.32322618
ECCENTRICITY   = .000177
INCLINATION    = 85.0087
RA_OF_ASC_NODE = 186.2411
ARG_OF_PERICENTER = 62.5389
MEAN_ANOMALY   = 297.5984

EPHEMERIS_TYPE = 0
CLASSIFICATION_TYPE = U
NORAD_CAT_ID   = 21949
ELEMENT_SET_NO = 999
REV_AT_EPOCH   = 8118
BSTAR          = .12281682E-3
MEAN_MOTION_DOT = .351E-5
MEAN_MOTION_DDOT = 0

CCSDS_OMM_VERS = 2.0
CREATION_DATE  = 
ORIGINATOR     = 

OBJECT_NAME    = COSMOS 2219
OBJECT_ID      = 1992-076A
CENTER_NAME    = EARTH
REF_FRAME      = TEME
TIME_SYSTEM    = UTC
MEAN_ELEMENT_THEORY = SGP/SGP4

EPOCH          = 2025-12-04T15:50:52.525824
MEAN_MOTION    = 14.14063692
ECCENTRICITY   = .00188913
INCLINATION    = 71.0592
RA_OF_ASC_NODE = 216.7218
ARG_OF_PERICENTER = 337.8776
MEAN_ANOMALY   = 22.1529

EPHEMERIS_TYPE = 0
CLASSIFICATION_TYPE = U
NORAD_CAT_ID   = 22219
ELEMENT_SET_NO = 999
REV_AT_EPOCH   = 70494
BSTAR          = -.60060325E-4
MEAN_MOTION_DOT = -.162E-5
MEAN_MOTION_DDOT = 0

CCSDS_OMM_VERS = 2.0
CREATION_DATE  = 
ORIGINATOR     = 

OBJECT_NAME    = SL-16 R/B
OBJECT_ID      = 1992-076B
CENTER_NAME    = EARTH
REF_FRAME      = TEME
TIME_SYSTEM    = UTC
MEAN_ELEMENT_THEORY = SGP/SGP4

EPOCH          = 2025-12-04T14:49:56.563392
MEAN_MOTION    = 14.16841686
ECCENTRICITY   = .00150513
INCLINATION    = 71.0015
RA_OF_ASC_NODE = 28.6403
ARG_OF_PERICENTER = 245.0333
MEAN_ANOMALY   = 277.6036

EPHEMERIS_TYPE = 0
CLASSIFICATION_TYPE = U
NORAD_CAT_ID   = 22220
ELEMENT_SET_NO = 999
REV_AT_EPOCH   = 70836
BSTAR          = .35634961E-4
MEAN_MOTION_DOT = .24E-6
MEAN_MOTION_DDOT = 0

CCSDS_OMM_VERS = 2.0
CREATION_DATE  = 
ORIGINATOR     = 

OBJECT_NAME    = COSMOS 2221
OBJECT_ID      = 1992-080A
CENTER_NAME    = EARTH
REF_FRAME      = TEME
TIME_SYSTEM    = UTC
MEAN_ELEMENT_THEORY = SGP/SGP4

EPOCH          = 2025-12-04T14:08:38.940576
MEAN_MOTION    = 14.95713921
ECCENTRICITY   = .0015419
INCLINATION    = 82.5047
RA_OF_ASC_NODE = 10.1270
ARG_OF_PERICENTER = 147.1380
MEAN_ANOMALY   = 213.0803

EPHEMERIS_TYPE = 0
CLASSIFICATION_TYPE = U
NORAD_CAT_ID   = 22236
ELEMENT_SET_NO = 999
REV_AT_EPOCH   = 76657
BSTAR          = .34705941E-3
MEAN_MOTION_DOT = .3897E-4
MEAN_MOTION_DDOT = 0

CCSDS_OMM_VERS = 2.0
CREATION_DATE  = 
ORIGINATOR     = 

OBJECT_NAME    = SL-16 R/B
OBJECT_ID      = 1992-093B
CENTER_NAME    = EARTH
REF_FRAME      = TEME
TIME_SYSTEM    = UTC
MEAN_ELEMENT_THEORY = SGP/SGP4

EPOCH          = 2025-12-04T14:48:20.566944
MEAN_MOTION    = 14.15425694
ECCENTRICITY   = .00019679
INCLINATION    = 71.0202
RA_OF_ASC_NODE = 203.8470
ARG_OF_PERICENTER = 97.0156
MEAN_ANOMALY   = 263.1190

EPHEMERIS_TYPE = 0
CLASSIFICATION_TYPE = U
NORAD_CAT_ID   = 22285
ELEMENT_SET_NO = 999
REV_AT_EPOCH   = 69970
BSTAR          = .17538441E-4
MEAN_MOTION_DOT = -.13E-6
MEAN_MOTION_DDOT = 0

CCSDS_OMM_VERS = 2.0
CREATION_DATE  = 
ORIGINATOR     = 

OBJECT_NAME    = COSMOS 2228
OBJECT_ID      = 1992-094A
CENTER_NAME    = EARTH
REF_FRAME      = TEME
TIME_SYSTEM    = UTC
MEAN_ELEMENT_THEORY = SGP/SGP4

EPOCH          = 2025-12-04T14:25:08.300064
MEAN_MOTION    = 14.96670309
ECCENTRICITY   = .00163214
INCLINATION    = 82.5170
RA_OF_ASC_NODE = 328.3224
ARG_OF_PERICENTER = 261.3839
MEAN_ANOMALY   = 98.5535

EPHEMERIS_TYPE = 0
CLASSIFICATION_TYPE = U
NORAD_CAT_ID   = 22286
ELEMENT_SET_NO = 999
REV_AT_EPOCH   = 76183
BSTAR          = .45580205E-3
MEAN_MOTION_DOT = .5238E-4
MEAN_MOTION_DDOT = 0

